{
    "links": {
        "self": "http://www.neowsapp.com/rest/v1/neo/3883085?api_key=iIulBulltgU6a56xZRHN4H3l9WmuAYTsLGpBGhQ2"
    },
    "id": "3883085",
    "neo_reference_id": "3883085",
    "name": "(2019 UH7)",
    "designation": "2019 UH7",
    "nasa_jpl_url": "http://ssd.jpl.nasa.gov/sbdb.cgi?sstr=3883085",
    "absolute_magnitude_h": 27.6,
    "estimated_diameter": {
        "kilometers": {
            "estimated_diameter_min": 0.0080270317,
            "estimated_diameter_max": 0.0179489885
        },
        "meters": {
            "estimated_diameter_min": 8.0270316728,
            "estimated_diameter_max": 17.948988478
        },
        "miles": {
            "estimated_diameter_min": 0.0049877647,
            "estimated_diameter_max": 0.0111529809
        },
        "feet": {
            "estimated_diameter_min": 26.3354065935,
            "estimated_diameter_max": 58.8877593581
        }
    },
    "is_potentially_hazardous_asteroid": false,
    "close_approach_data": [
        {
            "close_approach_date": "2019-10-30",
            "close_approach_date_full": "2019-Oct-30 13:15",
            "epoch_date_close_approach": 1572441300000,
            "relative_velocity": {
                "kilometers_per_second": "6.1941026805",
                "kilometers_per_hour": "22298.7696497015",
                "miles_per_hour": "13855.5882859492"
            },
            "miss_distance": {
                "astronomical": "0.0255680707",
                "lunar": "9.9459795023",
                "kilometers": "3824928.916729409",
                "miles": "2376700.6197834842"
            },
            "orbiting_body": "Earth"
        }
    ],
    "orbital_data": {
        "orbit_id": "2",
        "orbit_determination_date": "2019-10-30 08:03:29",
        "first_observation_date": "2019-10-25",
        "last_observation_date": "2019-10-30",
        "data_arc_in_days": 5,
        "observations_used": 21,
        "orbit_uncertainty": "8",
        "minimum_orbit_intersection": ".0242628",
        "jupiter_tisserand_invariant": "4.284",
        "epoch_osculation": "2458782.5",
        "eccentricity": ".370817315232315",
        "semi_major_axis": "1.595062677392309",
        "inclination": "6.352491303646899",
        "ascending_node_longitude": "32.69782055990335",
        "orbital_period": "735.8089340077066",
        "perihelion_distance": "1.003585817734425",
        "perihelion_argument": "21.74962350604711",
        "aphelion_distance": "2.186539537050194",
        "perihelion_time": "2458802.405451084784",
        "mean_anomaly": "350.261109835278",
        "mean_motion": ".4892574462764399",
        "equinox": "J2000",
        "orbit_class": {
            "orbit_class_type": "APO",
            "orbit_class_description": "Near-Earth asteroid orbits which cross the Earth’s orbit similar to that of 1862 Apollo",
            "orbit_class_range": "a (semi-major axis) > 1.0 AU; q (perihelion) < 1.017 AU"
        }
    },
    "is_sentry_object": false
}